STARLINK-3813           
1 52482U 22049AH  26068.17648593  .00000249  00000+0  33725-4 0  9991
2 52482  53.2177  51.4238 0001372  91.1282 268.9867 15.08838651212317
ROBUSTA-3A (MEDITERRAN*)
1 60243U 24128J   26068.73078396  .00011442  00000+0  68951-3 0  9990
2 60243  61.9866 199.5396 0051919 108.1058 252.5701 15.10076246 91399
